store_name,storeid,addr_num,addr_st,addr_all,addr_add,city,state,zip5,country,store_type,stype_num,store_group,stgrp_num,Y2008,Y2009,Y2010,Y2011,Y2012,Y2013,Y2014,Y2015,Y2016,Y2017,X,Y,method,match,dup,state_fp,county_fp,tract_fp,gisjn_tct,msa,msa_id
FLOWERS BAKERY STORE 40000143,st_106898,1455,N Chase St,1455 N Chase St,NA,Athens,GA,30601,NA,Bakery Specialty,1,Specialty,5,1,1,1,1,1,1,1,1,1,1,-83.39361,33.97716,usda,NA,0,13,59,13059130300,G1300590130300,"Athens-Clarke County, GA",12020
Dollar General 15280,st_352079,880,Whitehall Rd,880 Whitehall Rd,NA,Athens,GA,30605,NA,Combination Grocery/Other,2,Small retail,4,0,0,0,0,0,0,1,1,1,1,-83.36377,33.90038,usda,NA,0,13,59,13059150400,G1300590150400,"Athens-Clarke County, GA",12020
Fooks Foods,st_193995,2026,S Milledge Ave,2026 S Milledge Ave,Ste C6,Athens,GA,30605,NA,Combination Grocery/Other,2,Small retail,4,0,1,1,1,1,1,1,1,1,1,-83.37855,33.92387,usda,NA,0,13,59,13059002200,G1300590002200,"Athens-Clarke County, GA",12020
DOLLAR GENERAL 3547,st_152777,1225,Cedar Shoals Dr,1225 Cedar Shoals Dr,NA,Athens,GA,30605,NA,Combination Grocery/Other,2,Small retail,4,1,1,1,1,1,1,1,1,1,1,-83.33389,33.92555,usda,NA,0,13,59,13059150700,G1300590150700,"Athens-Clarke County, GA",12020
Rite Aid 11820,st_108717,1850,Barnett Shoals Rd,1850 Barnett Shoals Rd,NA,Athens,GA,30605,NA,Combination Grocery/Other,2,Small retail,4,1,1,1,1,1,1,1,1,1,1,-83.33985,33.92578,usda,NA,0,13,59,13059150500,G1300590150500,"Athens-Clarke County, GA",12020
Oriental Mini Mart,st_323814,1055,Gaines School Rd,1055 Gaines School Rd,Ste 108,Athens,GA,30605,USA,Combination Grocery/Other,2,Small retail,4,0,0,0,0,0,0,1,0,0,0,-83.33820099,33.92672708,esri,PointAddress,0,13,59,13059150800,G1300590150800,"Athens-Clarke County, GA",12020
DOLLARTREE 1503,st_396680,4410,Lexington Rd,4410 Lexington Rd,NA,Athens,GA,30605,NA,Combination Grocery/Other,2,Small retail,4,0,0,0,0,0,0,0,0,1,1,-83.30994,33.93162,usda,NA,0,13,59,13059150700,G1300590150700,"Athens-Clarke County, GA",12020
Family Dollar Store 3055,st_173861,4060,Lexington Rd,4060 Lexington Rd,NA,Athens,GA,30605,NA,Combination Grocery/Other,2,Small retail,4,0,1,1,1,1,1,1,1,1,1,-83.32115,33.93795,usda,NA,0,13,59,13059150700,G1300590150700,"Athens-Clarke County, GA",12020
CVS Pharmacy 4555,st_114338,4044,Lexington Rd,4044 Lexington Rd,NA,Athens,GA,30605,NA,Combination Grocery/Other,2,Small retail,4,1,1,1,1,1,1,1,1,1,1,-83.32169,33.93821,usda,NA,0,13,59,13059150700,G1300590150700,"Athens-Clarke County, GA",12020
Dollar Tree 20,st_046006,3565,Atlanta Hwy,3565 Atlanta Hwy,NA,Athens,GA,30606,NA,Combination Grocery/Other,2,Small retail,4,1,1,1,1,1,1,1,1,1,1,-83.45657,33.93895,usda,NA,0,13,59,13059130700,G1300590130700,"Athens-Clarke County, GA",12020
Walgreens 12886,st_251962,3355,Lexington Rd,3355 Lexington Rd,NA,Athens,GA,30605,NA,Combination Grocery/Other,2,Small retail,4,0,0,0,1,1,1,1,1,1,1,-83.32292,33.93897,usda,NA,0,13,59,13059150600,G1300590150600,"Athens-Clarke County, GA",12020
CVS PHARMACY 3874,st_276952,3595,Atlanta Hwy,3595 Atlanta Hwy,NA,Athens,GA,30606,NA,Combination Grocery/Other,2,Small retail,4,0,0,0,0,1,1,1,1,1,1,-83.45517,33.93904,usda,NA,0,13,59,13059130700,G1300590130700,"Athens-Clarke County, GA",12020
DOLLAR GENERAL 3023,st_151420,3190,Atlanta Hwy,3190 Atlanta Hwy,NA,Athens,GA,30606,NA,Combination Grocery/Other,2,Small retail,4,1,1,1,1,1,1,1,1,1,1,-83.44611,33.94157,usda,NA,0,13,59,13059130600,G1300590130600,"Athens-Clarke County, GA",12020
KANGAROO EXPRESS 3316,st_062984,1333,S Lumpkin St,1333 S Lumpkin St,NA,Athens,GA,30605,USA,Combination Grocery/Other,2,Small retail,4,1,0,0,0,0,0,0,0,0,0,-83.38351712,33.94275007,esri,PointAddress,0,13,59,13059002100,G1300590002100,"Athens-Clarke County, GA",12020
Opa Robby's Market,st_334513,3129,Atlanta Hwy,3129 Atlanta Hwy,NA,Athens,GA,30606,NA,Combination Grocery/Other,2,Small retail,4,0,0,0,0,0,0,1,1,1,1,-83.44212,33.94281,usda,NA,0,13,59,13059130700,G1300590130700,"Athens-Clarke County, GA",12020
Dollar General 15295,st_352339,2194,Lexington Rd,2194 Lexington Rd,NA,Athens,GA,30605,NA,Combination Grocery/Other,2,Small retail,4,0,0,0,0,0,0,1,1,1,1,-83.34037,33.94478,usda,NA,0,13,59,13059150600,G1300590150600,"Athens-Clarke County, GA",12020
Race Trac 643,st_308320,2625,Atlanta Hwy,2625 Atlanta Hwy,NA,Athens,GA,30606,NA,Combination Grocery/Other,2,Small retail,4,0,0,0,0,0,1,1,1,1,1,-83.42728,33.94626,usda,NA,0,13,59,13059150300,G1300590150300,"Athens-Clarke County, GA",12020
FREDS STORE 1523,st_028751,2656,Atlanta Hwy,2656 Atlanta Hwy,Ste B,Athens,GA,30606,USA,Combination Grocery/Other,2,Small retail,4,1,1,1,1,1,1,1,0,0,0,-83.42788615,33.9464624,esri,PointAddress,0,13,59,13059130600,G1300590130600,"Athens-Clarke County, GA",12020
CVS PHARMACY 3678,st_213076,196,Alps Rd,196 Alps Rd,Ste 20,Athens,GA,30606,NA,Combination Grocery/Other,2,Small retail,4,0,0,1,1,1,1,1,1,1,1,-83.40926,33.94701,usda,NA,0,13,59,13059001200,G1300590001200,"Athens-Clarke County, GA",12020
Bulldawgz 1,st_299915,1037,Baxter St,1037 Baxter St,Ste B,Athens,GA,30606,USA,Combination Grocery/Other,2,Small retail,4,0,0,0,0,0,1,1,1,1,0,-83.39437456,33.94760092,esri,PointAddress,0,13,59,13059002e3,G1300590002000,"Athens-Clarke County, GA",12020
Dollar Tree 6521,st_303037,1005,Baxter St,1005 Baxter St,NA,Athens,GA,30606,NA,Combination Grocery/Other,2,Small retail,4,0,0,0,0,0,1,1,1,1,1,-83.39201,33.94814,usda,NA,0,13,59,13059002e3,G1300590002000,"Athens-Clarke County, GA",12020
Walgreens 7134,st_002147,110,Hawthorne Ave,110 Hawthorne Ave,NA,Athens,GA,30606,NA,Combination Grocery/Other,2,Small retail,4,1,1,1,1,1,1,1,1,1,1,-83.40981,33.95083,usda,NA,0,13,59,13059000900,G1300590000900,"Athens-Clarke County, GA",12020
J & J Babies Variety Store,st_243240,1627,W Broad St,1627 W Broad St,NA,Athens,GA,30606,USA,Combination Grocery/Other,2,Small retail,4,0,0,0,1,0,0,0,0,0,0,-83.39803514,33.95249757,esri,StreetAddress,0,13,59,13059000900,G1300590000900,"Athens-Clarke County, GA",12020
Dollar General 14048,st_311515,1125,W Broad St,1125 W Broad St,NA,Athens,GA,30606,NA,Combination Grocery/Other,2,Small retail,4,0,0,0,0,0,1,1,1,1,1,-83.39111,33.95419,usda,NA,0,13,59,13059000900,G1300590000900,"Athens-Clarke County, GA",12020
FAMILY DOLLAR STORE 7765,st_180955,415,Hawthorne Ave,415 Hawthorne Ave,NA,Athens,GA,30606,NA,Combination Grocery/Other,2,Small retail,4,0,1,1,1,1,1,1,1,1,1,-83.41217,33.95575,usda,NA,0,13,59,13059000900,G1300590000900,"Athens-Clarke County, GA",12020
CVS/PHARMACY 10865,st_399218,170,W Broad St,170 W Broad St,NA,Athens,GA,30601,NA,Combination Grocery/Other,2,Small retail,4,0,0,0,0,0,0,0,0,1,1,-83.37799,33.95709,usda,NA,0,13,59,13059000402,G1300590000402,"Athens-Clarke County, GA",12020
CVS PHARMACY 5704,st_213776,795,Oglethorpe Ave,795 Oglethorpe Ave,NA,Athens,GA,30606,NA,Combination Grocery/Other,2,Small retail,4,0,0,1,1,1,1,1,1,1,1,-83.41344,33.96216,usda,NA,0,13,59,13059001800,G1300590001800,"Athens-Clarke County, GA",12020
Rite Aid 11822,st_217052,1190,Prince Ave,1190 Prince Ave,NA,Athens,GA,30606,NA,Combination Grocery/Other,2,Small retail,4,0,0,1,1,1,1,1,1,1,1,-83.39675,33.96236,usda,NA,0,13,59,13059001900,G1300590001900,"Athens-Clarke County, GA",12020
Rite Aid 11823,st_108718,2435,Jefferson Rd,2435 Jefferson Rd,NA,Athens,GA,30607,NA,Combination Grocery/Other,2,Small retail,4,1,1,1,1,1,1,1,1,1,1,-83.41293,33.97261,usda,NA,0,13,59,13059130300,G1300590130300,"Athens-Clarke County, GA",12020
FAMILY DOLLAR STORE 103,st_181522,498,North Ave,498 North Ave,NA,Athens,GA,30601,NA,Combination Grocery/Other,2,Small retail,4,0,1,1,1,1,1,1,1,1,1,-83.36412,33.9771,usda,NA,0,13,59,13059030100,G1300590030100,"Athens-Clarke County, GA",12020
Dollar General 13858,st_308369,800,Danielsville Rd,800 Danielsville Rd,NA,Athens,GA,30601,NA,Combination Grocery/Other,2,Small retail,4,0,0,0,0,0,1,1,1,1,1,-83.36089,33.98297,usda,NA,0,13,59,13059140400,G1300590140400,"Athens-Clarke County, GA",12020
Family Dollar 11739,st_415100,3870,Jefferson Rd,3870 Jefferson Rd,Old,Athens,GA,30607,NA,Combination Grocery/Other,2,Small retail,4,0,0,0,0,0,0,0,0,0,1,-83.42281,33.98826,usda,NA,0,13,59,13059130300,G1300590130300,"Athens-Clarke County, GA",12020
Dollar General Store 17447,st_417849,125,Hwy 330,125 Hwy 330,NA,Athens,GA,30607,NA,Combination Grocery/Other,2,Small retail,4,0,0,0,0,0,0,0,0,0,1,-83.49394,34.01296,usda,NA,0,13,157,13157010600,G1301570010600,"Jefferson, GA",27600
DOLLAR GENERAL 9147,st_153540,11325,Commerce Rd,11325 Commerce Rd,NA,Athens,GA,30607,NA,Combination Grocery/Other,2,Small retail,4,1,1,1,1,1,1,1,1,1,1,-83.40176,34.0325,usda,NA,0,13,157,13157010500,G1301570010500,"Jefferson, GA",27600
OCONEE FOOD MART,st_006789,8851,Macon Hwy,8851 Macon Hwy,NA,Athens,GA,30606,USA,Convenience Store,3,Small retail,4,1,0,0,0,0,0,0,0,0,0,-83.40118302,33.90977535,esri,PointAddress,0,13,219,13219030200,G1302190030200,"Athens-Clarke County, GA",12020
SHAZ FOOD MART,st_211825,8851,Macon Hwy,8851 Macon Hwy,NA,Athens,GA,30606,USA,Convenience Store,3,Small retail,4,0,0,1,0,0,0,0,0,0,0,-83.40118302,33.90977535,esri,PointAddress,0,13,219,13219030200,G1302190030200,"Athens-Clarke County, GA",12020
Fill & Move,st_249140,8851,Macon Hwy,8851 Macon Hwy,NA,Athens,GA,30606,USA,Convenience Store,3,Small retail,4,0,0,0,1,0,0,0,0,0,0,-83.40118302,33.90977535,esri,PointAddress,0,13,219,13219030200,G1302190030200,"Athens-Clarke County, GA",12020
Athens Shell,st_275357,2111,Oconee Connector,2111 Oconee Connector,NA,Athens,GA,30606,NA,Convenience Store,3,Small retail,4,0,0,0,0,1,1,1,1,1,1,-83.44505,33.91534,usda,NA,0,13,219,13219030200,G1302190030200,"Athens-Clarke County, GA",12020
Golden Pantry Food Stores 2,st_256950,2290,Barnett Shoals Rd,2290 Barnett Shoals Rd,NA,Athens,GA,30605,NA,Convenience Store,3,Small retail,4,0,0,0,1,1,1,1,1,1,1,-83.34233,33.92022,usda,NA,0,13,59,13059150500,G1300590150500,"Athens-Clarke County, GA",12020
Jimbo's #3,st_234020,520,Macon Hwy,520 Macon Hwy,NA,Athens,GA,30606,NA,Convenience Store,3,Small retail,4,0,0,1,1,1,1,1,1,1,1,-83.38524,33.92029,usda,NA,0,13,59,13059002200,G1300590002200,"Athens-Clarke County, GA",12020
Welcome Pantry,st_196733,2275,Barnett Shoals Rd,2275 Barnett Shoals Rd,NA,Athens,GA,30605,USA,Convenience Store,3,Small retail,4,0,1,0,0,0,0,0,0,0,0,-83.34203259,33.92064282,esri,PointAddress,0,13,59,13059150500,G1300590150500,"Athens-Clarke County, GA",12020
Welcome Food Mart,st_225745,2275,Barnett Shoals Rd,2275 Barnett Shoals Rd,NA,Athens,GA,30605,USA,Convenience Store,3,Small retail,4,0,0,1,1,1,1,1,1,1,0,-83.34203259,33.92064282,esri,PointAddress,0,13,59,13059150500,G1300590150500,"Athens-Clarke County, GA",12020
Chevron Food Mart,st_250388,2030,S Milledge Ave,2030 S Milledge Ave,NA,Athens,GA,30605,NA,Convenience Store,3,Small retail,4,0,0,0,1,1,1,1,1,1,1,-83.37852,33.92337,usda,NA,0,13,59,13059002200,G1300590002200,"Athens-Clarke County, GA",12020
Dawg House Groceries,st_249046,2026,S Milledge Ave,2026 S Milledge Ave,Ste D3,Athens,GA,30605,USA,Convenience Store,3,Small retail,4,0,0,0,1,1,1,0,0,0,0,-83.3785471,33.92372892,esri,PointAddress,0,13,59,13059002200,G1300590002200,"Athens-Clarke County, GA",12020
Perry's Convenience,st_285369,1195,Cedar Shoals Dr,1195 Cedar Shoals Dr,NA,Athens,GA,30605,NA,Convenience Store,3,Small retail,4,0,0,0,0,1,1,1,1,1,1,-83.334460000000007,33.92595,usda,NA,0,13,59,13059150700,G1300590150700,"Athens-Clarke County, GA",12020
Murphy Express 8577,st_256614,4400,Lexington Rd,4400 Lexington Rd,NA,Athens,GA,30605,NA,Convenience Store,3,Small retail,4,0,0,0,1,1,1,1,1,1,1,-83.31045,33.93197,usda,NA,0,13,59,13059150700,G1300590150700,"Athens-Clarke County, GA",12020
Perry Convenience Store 2,st_271761,4390,Lexington Rd,4390 Lexington Rd,NA,Athens,GA,30605,NA,Convenience Store,3,Small retail,4,0,0,0,0,1,1,1,1,1,1,-83.31126,33.93253,usda,NA,0,13,59,13059150700,G1300590150700,"Athens-Clarke County, GA",12020
BP FOODMART,st_184802,790,Barnett Shoals Rd,790 Barnett Shoals Rd,NA,Athens,GA,30605,NA,Convenience Store,3,Small retail,4,0,1,1,1,1,1,1,1,1,1,-83.35062,33.93517,usda,NA,0,13,59,13059150500,G1300590150500,"Athens-Clarke County, GA",12020
FAST FARE GROCERIES,st_202211,145,Gaines School Rd,145 Gaines School Rd,NA,Athens,GA,30605,USA,Convenience Store,3,Small retail,4,0,0,1,1,1,0,0,0,0,0,-83.32438284,33.93718997,esri,PointAddress,0,13,59,13059150700,G1300590150700,"Athens-Clarke County, GA",12020
Fast Fare Groceries,st_373353,145,Gaines School Rd,145 Gaines School Rd,NA,Athens,GA,30605,USA,Convenience Store,3,Small retail,4,0,0,0,0,0,0,0,1,1,0,-83.32438284,33.93718997,esri,PointAddress,0,13,59,13059150700,G1300590150700,"Athens-Clarke County, GA",12020
Quick Stop 6,st_304346,4000,Lexington Rd,4000 Lexington Rd,NA,Athens,GA,30605,NA,Convenience Store,3,Small retail,4,0,0,0,0,0,1,1,1,1,1,-83.32217,33.9385,usda,NA,0,13,59,13059150700,G1300590150700,"Athens-Clarke County, GA",12020
LAYS QUICK CORNER,st_036019,3360,Lexington Rd,3360 Lexington Rd,NA,Athens,GA,30605,USA,Convenience Store,3,Small retail,4,1,1,1,1,1,0,0,0,0,0,-83.32298426,33.93892764,esri,PointAddress,0,13,59,13059150600,G1300590150600,"Athens-Clarke County, GA",12020
"Golden Pantry Food Stores, Inc. 1",st_256945,1205,S Milledge Ave,1205 S Milledge Ave,NA,Athens,GA,30605,NA,Convenience Store,3,Small retail,4,0,0,0,1,1,1,1,1,1,1,-83.38653,33.93908,usda,NA,0,13,59,13059002100,G1300590002100,"Athens-Clarke County, GA",12020
Golden Pantry Food Stores 22,st_257088,3495,Atlanta Hwy,3495 Atlanta Hwy,NA,Athens,GA,30606,NA,Convenience Store,3,Small retail,4,0,0,0,1,1,1,1,1,1,1,-83.45429,33.93916,usda,NA,0,13,59,13059130700,G1300590130700,"Athens-Clarke County, GA",12020
Chevron 4450,st_385724,4450,Atlanta Hwy,4450 Atlanta Hwy,NA,Athens,GA,30606,NA,Convenience Store,3,Small retail,4,0,0,0,0,0,0,0,0,1,1,-83.48993,33.94025,usda,NA,0,13,59,13059130500,G1300590130500,"Athens-Clarke County, GA",12020
P J Mart,st_326612,245,Epps Bridge Rd,245 Epps Bridge Rd,NA,Athens,GA,30606,NA,Convenience Store,3,Small retail,4,0,0,0,0,0,0,1,1,1,1,-83.43053,33.94094,usda,NA,0,13,59,13059130700,G1300590130700,"Athens-Clarke County, GA",12020
Golden Pantry Food Stores 7,st_257021,245,Epps Bridge Rd,245 Epps Bridge Rd,NA,Athens,GA,30606,USA,Convenience Store,3,Small retail,4,0,0,0,1,1,1,0,0,0,0,-83.43040763,33.94111039,esri,PointAddress,0,13,59,13059130700,G1300590130700,"Athens-Clarke County, GA",12020
Big Lots 1429,st_359638,3190,Atlanta Hwy,3190 Atlanta Hwy,NA,Athens,GA,30606,NA,Convenience Store,3,Small retail,4,0,0,0,0,0,0,0,1,1,1,-83.44638,33.94147,usda,NA,0,13,59,13059130600,G1300590130600,"Athens-Clarke County, GA",12020
Circle K 2723316,st_225830,1333,S Lumpkin St,1333 S Lumpkin St,NA,Athens,GA,30605,NA,Convenience Store,3,Small retail,4,0,0,1,1,1,1,1,1,1,1,-83.3833,33.94289,usda,NA,0,13,59,13059002100,G1300590002100,"Athens-Clarke County, GA",12020
QUICK STOP/CHEVRON,st_183116,1960,Lexington Rd,1960 Lexington Rd,NA,Athens,GA,30605,USA,Convenience Store,3,Small retail,4,0,1,1,1,0,0,0,0,0,0,-83.34385164,33.94469456,esri,PointAddress,0,13,59,13059150600,G1300590150600,"Athens-Clarke County, GA",12020
Quick Stop Chevron,st_283128,1960,Lexington Rd,1960 Lexington Rd,NA,Athens,GA,30605,NA,Convenience Store,3,Small retail,4,0,0,0,0,1,1,1,1,1,1,-83.34361,33.9447,usda,NA,0,13,59,13059150600,G1300590150600,"Athens-Clarke County, GA",12020
ON THE WAY FOOD STORE,st_007208,1097,Baxter St,1097 Baxter St,NA,Athens,GA,30606,NA,Convenience Store,3,Small retail,4,1,1,1,1,1,1,1,1,1,1,-83.40215,33.94622,usda,NA,0,13,59,13059002e3,G1300590002000,"Athens-Clarke County, GA",12020
Mark Convience Store,st_254044,1735,Lexington Rd,1735 Lexington Rd,NA,Athens,GA,30605,USA,Convenience Store,3,Small retail,4,0,0,0,1,1,1,0,0,0,0,-83.34838205,33.94624871,esri,PointAddress,0,13,59,13059140500,G1300590140500,"Athens-Clarke County, GA",12020
Lexington Marathon,st_245106,1590,Lexington Rd,1590 Lexington Rd,NA,Athens,GA,30605,NA,Convenience Store,3,Small retail,4,0,0,0,1,1,1,1,1,1,1,-83.35127,33.94658,usda,NA,0,13,59,13059150600,G1300590150600,"Athens-Clarke County, GA",12020
Sam's Foodmart # 2,st_252525,2545,Atlanta Hwy,2545 Atlanta Hwy,NA,Athens,GA,30606,NA,Convenience Store,3,Small retail,4,0,0,0,1,1,1,1,1,1,1,-83.42232,33.9468,usda,NA,0,13,59,13059001200,G1300590001200,"Athens-Clarke County, GA",12020
Shell Food Mart,st_183237,1290,Oconee St,1290 Oconee St,NA,Athens,GA,30605,USA,Convenience Store,3,Small retail,4,0,1,1,1,1,1,1,0,0,0,-83.35870026,33.9481423,esri,PointAddress,0,13,59,13059030200,G1300590030200,"Athens-Clarke County, GA",12020
Quality Market,st_252858,105,Old Winterville Rd,105 Old Winterville Rd,NA,Athens,GA,30601,USA,Convenience Store,3,Small retail,4,0,0,0,1,1,1,1,1,0,0,-83.3580732,33.94819441,esri,PointAddress,0,13,59,13059030200,G1300590030200,"Athens-Clarke County, GA",12020
Fill It Up Inc,st_356447,1290,Oconee St,1290 Oconee St,NA,Athens,GA,30605,NA,Convenience Store,3,Small retail,4,0,0,0,0,0,0,0,1,1,1,-83.35876,33.9482,usda,NA,0,13,59,13059030200,G1300590030200,"Athens-Clarke County, GA",12020
Quality Market 1,st_382980,105,Old Winterville Rd,105 Old Winterville Rd,NA,Athens,GA,30601,NA,Convenience Store,3,Small retail,4,0,0,0,0,0,0,0,0,1,1,-83.35807,33.9482,usda,NA,0,13,59,13059030200,G1300590030200,"Athens-Clarke County, GA",12020
Golden Pantry Food Stores 23,st_257098,2350,W Broad St,2350 W Broad St,NA,Athens,GA,30606,NA,Convenience Store,3,Small retail,4,0,0,0,1,1,1,1,1,1,1,-83.41485,33.94857,usda,NA,0,13,59,13059000900,G1300590000900,"Athens-Clarke County, GA",12020
Quik Trip 819,st_260191,1240,Oconee Connector,1240 Oconee Connector,NA,Athens,GA,30606,NA,Convenience Store,3,Small retail,4,0,0,0,1,1,1,1,1,1,1,-83.35946,33.9486,usda,NA,0,13,59,13059030200,G1300590030200,"Athens-Clarke County, GA",12020
Taj Mahal Grocery 1,st_343460,2161,W Broad St,2161 W Broad St,NA,Athens,GA,30606,USA,Convenience Store,3,Small retail,4,0,0,0,0,0,0,1,0,0,0,-83.40785955,33.95013301,esri,StreetAddress,0,13,59,13059000900,G1300590000900,"Athens-Clarke County, GA",12020
BULLDOG CORNER,st_142354,320,Baxter St,320 Baxter St,NA,Athens,GA,30605,NA,Convenience Store,3,Small retail,4,1,1,1,1,1,1,1,1,1,1,-83.38133,33.95074,usda,NA,0,13,59,13059000600,G1300590000600,"Athens-Clarke County, GA",12020
Nima Food Mart,st_298922,205,Hawthorne Ave,205 Hawthorne Ave,NA,Athens,GA,30606,NA,Convenience Store,3,Small retail,4,0,0,0,0,0,1,1,1,1,1,-83.40998,33.95142,usda,NA,0,13,59,13059000900,G1300590000900,"Athens-Clarke County, GA",12020
Marathon Food Mart,st_399996,1925,W Broad St,1925 W Broad St,NA,Athens,GA,30606,NA,Convenience Store,3,Small retail,4,0,0,0,0,0,0,0,0,1,1,-83.40103,33.95185,usda,NA,0,13,59,13059000900,G1300590000900,"Athens-Clarke County, GA",12020
Golden Pantry Food Stores 6,st_256973,1880,W Broad St,1880 W Broad St,NA,Athens,GA,30606,USA,Convenience Store,3,Small retail,4,0,0,0,1,1,0,0,0,0,0,-83.4000567,33.95214191,esri,PointAddress,0,13,59,13059001800,G1300590001800,"Athens-Clarke County, GA",12020
Athens Mini Mart Corporation,st_396862,1627,W Broad St,1627 W Broad St,NA,Athens,GA,30606,NA,Convenience Store,3,Small retail,4,0,0,0,0,0,0,0,0,1,1,-83.39803,33.95255,usda,NA,0,13,59,13059000900,G1300590000900,"Athens-Clarke County, GA",12020
Bulldog Square 1,st_271601,450,Baldwin St,450 Baldwin St,NA,Athens,GA,30605,NA,Convenience Store,3,Small retail,4,0,0,0,0,1,1,1,1,1,1,-83.37019,33.95314,usda,NA,0,13,59,13059000402,G1300590000402,"Athens-Clarke County, GA",12020
Golden Pantry Food Stores 66,st_257486,126,N Milledge Ave,126 N Milledge Ave,NA,Athens,GA,30601,NA,Convenience Store,3,Small retail,4,0,0,0,1,1,1,1,1,1,1,-83.38838,33.95528,usda,NA,0,13,59,13059000600,G1300590000600,"Athens-Clarke County, GA",12020
VINE STREET GROCERY & CAFE,st_175228,585,Vine St,585 Vine St,Ste 3,Athens,GA,30601,USA,Convenience Store,3,Small retail,4,0,1,1,0,0,0,0,0,0,0,-83.3550011,33.95582764,esri,PointAddress,0,13,59,13059030200,G1300590030200,"Athens-Clarke County, GA",12020
Vine Street Grocery and Carry Out,st_228944,585,Vine St,585 Vine St,Ste 3,Athens,GA,30601,USA,Convenience Store,3,Small retail,4,0,0,1,1,1,1,1,1,0,0,-83.3550011,33.95582764,esri,PointAddress,0,13,59,13059030200,G1300590030200,"Athens-Clarke County, GA",12020
Airport Mini Mart,st_406871,1989,Winterville Rd,1989 Winterville Rd,NA,Athens,GA,30605,NA,Convenience Store,3,Small retail,4,0,0,0,0,0,0,0,0,0,1,-83.32569,33.95604,usda,NA,0,13,59,13059140500,G1300590140500,"Athens-Clarke County, GA",12020
Bert's,st_292708,151,Nellie B Ave,151 Nellie B Ave,NA,Athens,GA,30601,USA,Convenience Store,3,Small retail,4,0,0,0,0,1,1,1,1,1,0,-83.35510088,33.95618543,esri,PointAddress,0,13,59,13059030200,G1300590030200,"Athens-Clarke County, GA",12020
Lazy Shopper Convenience Store,st_419040,351,E Clayton St,351 E Clayton St,NA,Athens,GA,30601,NA,Convenience Store,3,Small retail,4,0,0,0,0,0,0,0,0,0,1,-83.37419,33.95886,usda,NA,0,13,59,13059000100,G1300590000100,"Athens-Clarke County, GA",12020
Froggers 2,st_419709,485,E Clayton St,485 E Clayton St,NA,Athens,GA,30601,NA,Convenience Store,3,Small retail,4,0,0,0,0,0,0,0,0,0,1,-83.37327,33.95911,usda,NA,0,13,59,13059000100,G1300590000100,"Athens-Clarke County, GA",12020
Froggers 1,st_416008,228,W Hancock Ave,228 W Hancock Ave,NA,Athens,GA,30601,NA,Convenience Store,3,Small retail,4,0,0,0,0,0,0,0,0,0,1,-83.37951,33.9594,usda,NA,0,13,59,13059000100,G1300590000100,"Athens-Clarke County, GA",12020
Golden Pantry Food Stores 97,st_257521,424,Prince Ave,424 Prince Ave,NA,Athens,GA,30601,NA,Convenience Store,3,Small retail,4,0,0,0,1,1,1,1,1,1,1,-83.38451,33.96062,usda,NA,0,13,59,13059001900,G1300590001900,"Athens-Clarke County, GA",12020
Daily Groceries,st_110290,523,Prince Ave,523 Prince Ave,NA,Athens,GA,30601,NA,Convenience Store,3,Small retail,4,1,1,1,1,1,1,1,1,1,1,-83.38534,33.96066,usda,NA,0,13,59,13059000600,G1300590000600,"Athens-Clarke County, GA",12020
BP Food Mart,st_295157,790,Hawthorne Ave,790 Hawthorne Ave,NA,Athens,GA,30606,USA,Convenience Store,3,Small retail,4,0,0,0,0,1,1,1,0,0,0,-83.4134225,33.96189069,esri,PointAddress,0,13,59,13059001800,G1300590001800,"Athens-Clarke County, GA",12020
Circle K 2723320,st_225831,990,Prince Ave,990 Prince Ave,NA,Athens,GA,30606,NA,Convenience Store,3,Small retail,4,0,0,1,1,1,1,1,1,1,1,-83.39294,33.96202,usda,NA,0,13,59,13059001900,G1300590001900,"Athens-Clarke County, GA",12020
Fast Trac,st_238387,1428,Prince Ave,1428 Prince Ave,Ste A,Athens,GA,30606,NA,Convenience Store,3,Small retail,4,0,0,0,1,1,1,1,1,1,1,-83.4019,33.96399,usda,NA,0,13,59,13059001900,G1300590001900,"Athens-Clarke County, GA",12020
Sam's Foodmart # 1,st_252528,1452,Prince Ave,1452 Prince Ave,Ste B,Athens,GA,30606,NA,Convenience Store,3,Small retail,4,0,0,0,1,1,1,1,1,1,1,-83.40231,33.96428,usda,NA,0,13,59,13059001900,G1300590001900,"Athens-Clarke County, GA",12020
SHELL FOOD MART,st_169134,175,Tallassee Rd,175 Tallassee Rd,NA,Athens,GA,30606,NA,Convenience Store,3,Small retail,4,0,1,1,1,1,1,1,1,1,1,-83.42928,33.96531,usda,NA,0,13,59,13059130600,G1300590130600,"Athens-Clarke County, GA",12020
Golden Pantry Food Stores 5,st_256964,125,Tallassee Rd,125 Tallassee Rd,NA,Athens,GA,30606,NA,Convenience Store,3,Small retail,4,0,0,0,1,1,1,1,1,1,1,-83.42943,33.96544,usda,NA,0,13,59,13059130600,G1300590130600,"Athens-Clarke County, GA",12020
Quick Pantry,st_270090,115,North Ave,115 North Ave,NA,Athens,GA,30601,NA,Convenience Store,3,Small retail,4,0,0,0,0,1,1,1,1,1,1,-83.37125,33.96676,usda,NA,0,13,59,13059030100,G1300590030100,"Athens-Clarke County, GA",12020
QUICK PANTRY,st_135705,115,North Ave,115 North Ave,NA,Athens,GA,30601,USA,Convenience Store,3,Small retail,4,1,0,0,0,0,0,0,0,0,0,-83.37116411,33.96685685,esri,PointAddress,0,13,59,13059030100,G1300590030100,"Athens-Clarke County, GA",12020
Apex Express,st_252529,470,North Ave,470 North Ave,NA,Athens,GA,30601,NA,Convenience Store,3,Small retail,4,0,0,0,1,1,1,1,1,1,1,-83.36421,33.97686,usda,NA,0,13,59,13059030100,G1300590030100,"Athens-Clarke County, GA",12020
CHEVRON FOOD MART,st_184456,1190,Commerce Rd,1190 Commerce Rd,NA,Athens,GA,30607,USA,Convenience Store,3,Small retail,4,0,1,1,1,1,1,0,0,0,0,-83.37767023,33.98010504,esri,PointAddress,0,13,59,13059140300,G1300590140300,"Athens-Clarke County, GA",12020
Chevron Food Mart 1,st_379818,1190,Commerce Rd,1190 Commerce Rd,NA,Athens,GA,30607,NA,Convenience Store,3,Small retail,4,0,0,0,0,0,0,0,0,1,1,-83.37767,33.98011,usda,NA,0,13,59,13059140300,G1300590140300,"Athens-Clarke County, GA",12020
Marathon Food Mart,st_228701,645,Danielsville Rd,645 Danielsville Rd,NA,Athens,GA,30601,USA,Convenience Store,3,Small retail,4,0,0,1,1,1,1,1,1,1,0,-83.362256060000007,33.98113154,esri,PointAddress,0,13,59,13059140300,G1300590140300,"Athens-Clarke County, GA",12020
Royal 7 C Store Inc,st_414416,645,Danielsville Rd,645 Danielsville Rd,NA,Athens,GA,30601,NA,Convenience Store,3,Small retail,4,0,0,0,0,0,0,0,0,0,1,-83.36226,33.98115,usda,NA,0,13,59,13059140300,G1300590140300,"Athens-Clarke County, GA",12020
Circle K 2723346,st_057453,290,Highway 29 N,290 Highway 29 N,NA,Athens,GA,30601,NA,Convenience Store,3,Small retail,4,1,1,1,1,1,1,1,1,1,1,-83.34757,33.98276,usda,NA,0,13,59,13059140500,G1300590140500,"Athens-Clarke County, GA",12020
Jefferson Marathon,st_240690,3465,Jefferson Rd,3465 Jefferson Rd,NA,Athens,GA,30607,USA,Convenience Store,3,Small retail,4,0,0,0,1,0,0,0,0,0,0,-83.42024261,33.98606549,esri,PointAddress,0,13,59,13059130400,G1300590130400,"Athens-Clarke County, GA",12020
Jp Jefferson Road 215,st_327406,3465,Jefferson Rd,3465 Jefferson Rd,NA,Athens,GA,30607,NA,Convenience Store,3,Small retail,4,0,0,0,0,0,0,1,1,1,1,-83.42043,33.98624,usda,NA,0,13,59,13059130400,G1300590130400,"Athens-Clarke County, GA",12020
Golden Pantry Food Stores 20,st_257085,4099,Jefferson Rd,4099 Jefferson Rd,NA,Athens,GA,30607,NA,Convenience Store,3,Small retail,4,0,0,0,1,1,1,1,1,1,1,-83.42394,33.98851,usda,NA,0,13,59,13059130400,G1300590130400,"Athens-Clarke County, GA",12020
Amna Food Mart,st_261081,3875,Jefferson Rd,3875 Jefferson Rd,NA,Athens,GA,30607,NA,Convenience Store,3,Small retail,4,0,0,0,1,1,1,1,1,1,1,-83.42593,33.98891,usda,NA,0,13,59,13059130400,G1300590130400,"Athens-Clarke County, GA",12020
Quick Pantry,st_130834,495,Newton Bridge Rd,495 Newton Bridge Rd,NA,Athens,GA,30607,NA,Convenience Store,3,Small retail,4,1,1,1,1,1,1,1,1,1,1,-83.39801,33.98912,usda,NA,0,13,59,13059130300,G1300590130300,"Athens-Clarke County, GA",12020
Valero,st_418949,1650,Commerce Rd,1650 Commerce Rd,NA,Athens,GA,30607,NA,Convenience Store,3,Small retail,4,0,0,0,0,0,0,0,0,0,1,-83.37939,33.99295,usda,NA,0,13,59,13059140300,G1300590140300,"Athens-Clarke County, GA",12020
BEST GROCERIES,st_144888,1650,Commerce Rd,1650 Commerce Rd,NA,Athens,GA,30607,USA,Convenience Store,3,Small retail,4,1,1,1,0,0,0,0,0,0,0,-83.37940442,33.99299693,esri,PointAddress,0,13,59,13059140300,G1300590140300,"Athens-Clarke County, GA",12020
ANC FOODMART,st_184695,1650,Commerce Rd,1650 Commerce Rd,NA,Athens,GA,30607,USA,Convenience Store,3,Small retail,4,0,1,1,0,0,0,0,0,0,0,-83.37940442,33.99299693,esri,PointAddress,0,13,59,13059140300,G1300590140300,"Athens-Clarke County, GA",12020
Exxon Food Mart,st_248211,1650,Commerce Rd,1650 Commerce Rd,NA,Athens,GA,30607,USA,Convenience Store,3,Small retail,4,0,0,0,1,1,1,1,1,0,0,-83.37940442,33.99299693,esri,PointAddress,0,13,59,13059140300,G1300590140300,"Athens-Clarke County, GA",12020
Commerce Road Valero,st_384116,1650,Commerce Rd,1650 Commerce Rd,NA,Athens,GA,30607,USA,Convenience Store,3,Small retail,4,0,0,0,0,0,0,0,0,1,0,-83.37940442,33.99299693,esri,PointAddress,0,13,59,13059140300,G1300590140300,"Athens-Clarke County, GA",12020
Hull Road Marathon,st_287509,840,Hull Rd,840 Hull Rd,NA,Athens,GA,30601,NA,Convenience Store,3,Small retail,4,0,0,0,0,1,1,1,1,1,1,-83.33472,33.99421,usda,NA,0,13,59,13059140500,G1300590140500,"Athens-Clarke County, GA",12020
QUIK SPOT,st_240740,840,Hull Rd,840 Hull Rd,NA,Athens,GA,30601,USA,Convenience Store,3,Small retail,4,0,0,0,1,0,0,0,0,0,0,-83.33467609,33.99421133,esri,PointAddress,0,13,59,13059140500,G1300590140500,"Athens-Clarke County, GA",12020
Athens Food Mart,st_269027,1790,Commerce Rd,1790 Commerce Rd,NA,Athens,GA,30607,USA,Convenience Store,3,Small retail,4,0,0,0,0,1,1,0,0,0,0,-83.38041608,33.99476718,esri,PointAddress,0,13,59,13059140300,G1300590140300,"Athens-Clarke County, GA",12020
Commerce Road Shell,st_325975,1790,Commerce Rd,1790 Commerce Rd,NA,Athens,GA,30607,USA,Convenience Store,3,Small retail,4,0,0,0,0,0,0,1,1,1,0,-83.38041608,33.99476718,esri,PointAddress,0,13,59,13059140300,G1300590140300,"Athens-Clarke County, GA",12020
Quick Pantry no,st_278049,1480,Danielsville Rd,1480 Danielsville Rd,NA,Athens,GA,30601,NA,Convenience Store,3,Small retail,4,0,0,0,0,1,1,1,1,1,1,-83.35401,33.99497,usda,NA,0,13,59,13059140400,G1300590140400,"Athens-Clarke County, GA",12020
Athens Fast Mart,st_201596,1112,Hull Rd,1112 Hull Rd,NA,Athens,GA,30601,USA,Convenience Store,3,Small retail,4,0,0,1,1,1,0,0,0,0,0,-83.32497909,33.99831383,esri,PointAddress,0,13,59,13059140500,G1300590140500,"Athens-Clarke County, GA",12020
Athens Food Shop,st_341314,1112,Hull Rd,1112 Hull Rd,NA,Athens,GA,30601,USA,Convenience Store,3,Small retail,4,0,0,0,0,0,0,1,1,0,0,-83.32497909,33.99831383,esri,PointAddress,0,13,59,13059140500,G1300590140500,"Athens-Clarke County, GA",12020
Athens Food Mart,st_383617,1112,Hull Rd,1112 Hull Rd,NA,Athens,GA,30601,NA,Convenience Store,3,Small retail,4,0,0,0,0,0,0,0,0,1,1,-83.32493,33.99834,usda,NA,0,13,59,13059140500,G1300590140500,"Athens-Clarke County, GA",12020
Quick Pantry,st_130833,1285,Highway 29 N,1285 Highway 29 N,NA,Athens,GA,30601,NA,Convenience Store,3,Small retail,4,1,1,1,1,1,1,1,1,1,1,-83.32678,34.01201,usda,NA,0,13,59,13059140400,G1300590140400,"Athens-Clarke County, GA",12020
All American Food Store,st_200869,1880,Highway 29 N,1880 Highway 29 N,NA,Athens,GA,30601,USA,Convenience Store,3,Small retail,4,0,0,1,0,0,0,0,0,0,0,-83.32064223,34.02115896,esri,PointAddress,0,13,59,13059140400,G1300590140400,"Athens-Clarke County, GA",12020
Kwik Pick,st_310867,1880,Hwy 29 S,1880 Hwy 29 S,NA,Athens,GA,30601,NA,Convenience Store,3,Small retail,4,0,0,0,0,0,1,1,1,1,1,-83.32037,34.02158,usda,NA,0,13,59,13059140400,G1300590140400,"Athens-Clarke County, GA",12020
KM MART,st_239620,3073,Danielsville Rd,3073 Danielsville Rd,NA,Athens,GA,30601,USA,Convenience Store,3,Small retail,4,0,0,0,1,0,0,0,0,0,0,-83.33031587,34.02495614,esri,PointAddress,0,13,59,13059140400,G1300590140400,"Athens-Clarke County, GA",12020
Norwood Groceries,st_285533,3073,Danielsville Rd,3073 Danielsville Rd,NA,Athens,GA,30601,USA,Convenience Store,3,Small retail,4,0,0,0,0,1,1,1,0,0,0,-83.33031587,34.02495614,esri,PointAddress,0,13,59,13059140400,G1300590140400,"Athens-Clarke County, GA",12020
NORWOOD FOODMART,st_028704,115,Ila Rd,115 Ila Rd,NA,Athens,GA,30601,USA,Convenience Store,3,Small retail,4,1,1,1,0,0,0,0,0,0,0,-83.32931973,34.02567549,esri,PointAddress,0,13,59,13059140400,G1300590140400,"Athens-Clarke County, GA",12020
Maruti Food Mart,st_343780,115,Ila Rd,115 Ila Rd,NA,Athens,GA,30601,NA,Convenience Store,3,Small retail,4,0,0,0,0,0,0,1,1,1,1,-83.32897,34.02588,usda,NA,0,13,59,13059140400,G1300590140400,"Athens-Clarke County, GA",12020
Balihai Food Mart,st_288700,4272,Old Danielsville Rd,4272 Old Danielsville Rd,NA,Athens,GA,30601,USA,Convenience Store,3,Small retail,4,0,0,0,0,1,1,1,0,0,0,-83.31836075,34.02840073,esri,PointAddress,0,13,195,13195020500,G1301950020500,"Athens-Clarke County, GA",12020
A Pex Gas,st_372089,4272,Old Danielsville Rd,4272 Old Danielsville Rd,NA,Athens,GA,30601,NA,Convenience Store,3,Small retail,4,0,0,0,0,0,0,0,1,1,1,-83.3182,34.02847,usda,NA,0,13,195,13195020500,G1301950020500,"Athens-Clarke County, GA",12020
Jackson Food Mart,st_195819,8444,Jefferson Rd,8444 Jefferson Rd,NA,Athens,GA,30607,NA,Convenience Store,3,Small retail,4,0,1,1,1,1,1,1,1,1,1,-83.50011,34.03547,usda,NA,0,13,157,13157010600,G1301570010600,"Jefferson, GA",27600
FAST PHIL'S,st_060877,8033,Jefferson Rd,8033 Jefferson Rd,NA,Athens,GA,30607,USA,Convenience Store,3,Small retail,4,1,1,1,1,0,0,0,0,0,0,-83.49861151,34.04088857,esri,PointAddress,0,13,157,13157010600,G1301570010600,"Jefferson, GA",27600
Kar Food Mart Llc,st_325176,8033,Jefferson Rd,8033 Jefferson Rd,NA,Athens,GA,30607,NA,Convenience Store,3,Small retail,4,0,0,0,0,0,0,1,1,1,1,-83.49861,34.0409,usda,NA,0,13,157,13157010600,G1301570010600,"Jefferson, GA",27600
D's Food Store,st_274405,10141,Commerce Rd,10141 Commerce Rd,NA,Athens,GA,30607,NA,Convenience Store,3,Small retail,4,0,0,0,0,1,1,1,1,1,1,-83.40768,34.0493,usda,NA,0,13,157,13157010500,G1301570010500,"Jefferson, GA",27600
Schwan's Home Service of Athens GA,st_082317,122,Newton Bridge Rd,122 Newton Bridge Rd,NA,Athens,GA,30607,USA,Delivery Route,4,Other store,3,1,1,1,0,0,0,0,0,0,0,-83.39376393,33.97809157,esri,StreetAddress,0,13,59,13059130300,G1300590130300,"Athens-Clarke County, GA",12020
MIDWESTERN MEATS,st_045364,1101,Old Creek Rd,1101 Old Creek Rd,Ste C6,Athens,GA,30607,USA,Delivery Route,4,Other store,3,1,1,1,1,1,0,0,0,0,0,-83.37987761,33.9959044,esri,PointAddress,0,13,59,13059140300,G1300590140300,"Athens-Clarke County, GA",12020
UGarden CSA,st_303254,2500,S Milledge Ave,2500 S Milledge Ave,NA,Athens,GA,30602,NA,Direct Marketing Farmer,5,Local foods,2,0,0,0,0,0,1,1,1,1,1,-83.37284,33.90271,usda,NA,0,13,59,13059150400,G1300590150400,"Athens-Clarke County, GA",12020
West Broad Market Garden,st_299792,1573,W Broad St,1573 W Broad St,NA,Athens,GA,30606,NA,Farmers' Market,6,Local foods,2,0,0,0,0,0,1,1,1,1,1,-83.39659,33.95285,usda,NA,0,13,59,13059000900,G1300590000900,"Athens-Clarke County, GA",12020
ATHENS LOCALLY GROWN,st_241870,670,W Broad St,670 W Broad St,NA,Athens,GA,30601,USA,Farmers' Market,6,Local foods,2,0,0,0,1,1,1,1,1,0,0,-83.38363652,33.95605607,esri,PointAddress,0,13,59,13059000600,G1300590000600,"Athens-Clarke County, GA",12020
ATHENS FARMERS MARKET,st_223258,705,Sunset Dr,705 Sunset Dr,NA,Athens,GA,30606,NA,Farmers' Market,6,Local foods,2,0,0,1,1,1,1,1,1,1,1,-83.41087,33.96378,usda,NA,0,13,59,13059001700,G1300590001700,"Athens-Clarke County, GA",12020
Meats & More,st_208891,1580,Lexington Rd,1580 Lexington Rd,NA,Athens,GA,30605,USA,Meat/Poultry Specialty,9,Specialty,5,0,0,1,0,0,0,0,0,0,0,-83.3518276,33.9466092,esri,PointAddress,0,13,59,13059150600,G1300590150600,"Athens-Clarke County, GA",12020
QUALITY MARKET,st_072139,105,Old Winterville Rd,105 Old Winterville Rd,NA,Athens,GA,30601,USA,Medium Grocery Store,10,Grocer,1,1,1,1,0,0,0,0,0,0,0,-83.3580732,33.94819441,esri,PointAddress,0,13,59,13059030200,G1300590030200,"Athens-Clarke County, GA",12020
PHOENIX MARKET,st_080610,296,W Broad St,296 W Broad St,NA,Athens,GA,30601,USA,Medium Grocery Store,10,Grocer,1,1,1,1,0,0,0,0,0,0,0,-83.37960813,33.956709,esri,PointAddress,0,13,59,13059000100,G1300590000100,"Athens-Clarke County, GA",12020
COSTA DE JALISCO 2,st_028612,140,Barber St,140 Barber St,NA,Athens,GA,30601,NA,Medium Grocery Store,10,Grocer,1,1,1,1,1,1,1,1,1,1,1,-83.38426,33.96153,usda,NA,0,13,59,13059001900,G1300590001900,"Athens-Clarke County, GA",12020
LOS COMPADRES,st_084742,1380,Prince Ave,1380 Prince Ave,NA,Athens,GA,30606,NA,Medium Grocery Store,10,Grocer,1,1,1,1,1,1,1,1,1,1,1,-83.40142,33.96372,usda,NA,0,13,59,13059001900,G1300590001900,"Athens-Clarke County, GA",12020
4 TIGERS,st_168467,401,North Ave,401 North Ave,Ste 10,Athens,GA,30601,USA,Medium Grocery Store,10,Grocer,1,1,1,1,1,1,1,1,1,0,0,-83.36447495,33.97655986,esri,PointAddress,0,13,59,13059030100,G1300590030100,"Athens-Clarke County, GA",12020
Supermarket El Camino Real,st_206844,401,North Ave,401 North Ave,Ste 2,Athens,GA,30601,NA,Medium Grocery Store,10,Grocer,1,0,0,1,1,1,1,1,1,1,1,-83.36447,33.97656,usda,NA,0,13,59,13059030100,G1300590030100,"Athens-Clarke County, GA",12020
Super Market El Camino Real Llc,st_395483,401,North Ave,401 North Ave,Ste 2,Athens,GA,30601,NA,Medium Grocery Store,10,Grocer,1,0,0,0,0,0,0,0,0,1,1,-83.36447,33.97656,usda,NA,0,13,59,13059030100,G1300590030100,"Athens-Clarke County, GA",12020
"La Jalisco Of Athens, LLC",st_388663,3750,Jefferson Rd,3750 Jefferson Rd,NA,Athens,GA,30607,NA,Medium Grocery Store,10,Grocer,1,0,0,0,0,0,0,0,0,1,1,-83.42207,33.98784,usda,NA,0,13,59,13059130300,G1300590130300,"Athens-Clarke County, GA",12020
supermercado la jalisco,st_214090,3750,Jefferson Rd,3750 Jefferson Rd,NA,Athens,GA,30607,USA,Medium Grocery Store,10,Grocer,1,0,0,1,1,1,1,1,1,0,0,-83.4220627,33.98786397,esri,StreetAddress,0,13,59,13059130300,G1300590130300,"Athens-Clarke County, GA",12020
LOS COMPADRES 2,st_023726,395,Old Commerce Rd,395 Old Commerce Rd,Ste D,Athens,GA,30607,USA,Medium Grocery Store,10,Grocer,1,1,1,1,1,1,0,0,0,0,0,-83.38073618,33.99434857,esri,PointAddress,0,13,59,13059140300,G1300590140300,"Athens-Clarke County, GA",12020
LA PASADITA SUPERMARKET,st_254801,1880,Highway 29 N,1880 Highway 29 N,NA,Athens,GA,30601,NA,Medium Grocery Store,10,Grocer,1,0,0,0,1,1,1,1,1,1,1,-83.32037,34.02158,usda,NA,0,13,59,13059140400,G1300590140400,"Athens-Clarke County, GA",12020
Mis Compadres 1,st_319396,395,Old Commerce Rd,395 Old Commerce Rd,Ste D,Athens,GA,30607,NA,Medium Grocery Store,10,Grocer,1,0,0,0,0,0,1,1,1,1,1,-83.41464,34.05352,usda,NA,0,13,157,13157010500,G1301570010500,"Jefferson, GA",27600
Lighthouse Seafood Palace,st_363579,50,Gaines School Rd,50 Gaines School Rd,Ste 10,Athens,GA,30605,USA,Seafood Specialty,13,Specialty,5,0,0,0,0,0,0,0,1,0,0,-83.32343011,33.93802502,esri,PointAddress,0,13,59,13059150600,G1300590150600,"Athens-Clarke County, GA",12020
Lighthouse Seafood,st_403033,585,Vine St,585 Vine St,Ste 3,Athens,GA,30601,NA,Seafood Specialty,13,Specialty,5,0,0,0,0,0,0,0,0,0,1,-83.355,33.95583,usda,NA,0,13,59,13059030200,G1300590030200,"Athens-Clarke County, GA",12020
First Class Groceries,st_279399,2024,S Milledge Ave,2024 S Milledge Ave,NA,Athens,GA,30605,USA,Small Grocery Store,14,Grocer,1,0,0,0,0,1,1,1,1,1,0,-83.37857744,33.92406344,esri,StreetAddress,0,13,59,13059002200,G1300590002200,"Athens-Clarke County, GA",12020
AFRICAN ASIAN INTERNATIONAL MARKET CORP. 1,st_188669,50,Gaines School Rd,50 Gaines School Rd,Ste 2,Athens,GA,30605,NA,Small Grocery Store,14,Grocer,1,0,1,1,1,1,1,1,1,1,1,-83.32343,33.93803,usda,NA,0,13,59,13059150600,G1300590150600,"Athens-Clarke County, GA",12020
European Deli 3,st_195685,3579,Atlanta Hwy,3579 Atlanta Hwy,NA,Athens,GA,30606,USA,Small Grocery Store,14,Grocer,1,0,1,1,1,0,0,0,0,0,0,-83.45568847,33.93896032,esri,StreetAddress,0,13,59,13059130700,G1300590130700,"Athens-Clarke County, GA",12020
TAJMAHAL GROCERY STORE,st_033361,1039,Baxter St,1039 Baxter St,NA,Athens,GA,30606,USA,Small Grocery Store,14,Grocer,1,1,1,1,1,1,1,0,0,0,0,-83.39457706,33.94755791,esri,PointAddress,0,13,59,13059002e3,G1300590002000,"Athens-Clarke County, GA",12020
MIKES GROCERY STORE,st_027877,170,Gressom St,170 Gressom St,NA,Athens,GA,30601,USA,Small Grocery Store,14,Grocer,1,1,0,0,0,0,0,0,0,0,0,-83.35499325,33.95524233,esri,StreetAddress,0,13,59,13059030200,G1300590030200,"Athens-Clarke County, GA",12020
J C FOOD STORE,st_072390,1323,W Hancock Ave,1323 W Hancock Ave,NA,Athens,GA,30606,NA,Small Grocery Store,14,Grocer,1,1,1,1,1,1,1,1,1,1,1,-83.39458,33.95563,usda,NA,0,13,59,13059000900,G1300590000900,"Athens-Clarke County, GA",12020
El Paso Grocery,st_210353,2075,Winterville Rd,2075 Winterville Rd,NA,Athens,GA,30605,USA,Small Grocery Store,14,Grocer,1,0,0,1,1,1,0,0,0,0,0,-83.32379786,33.9556922,esri,StreetAddress,0,13,59,13059140500,G1300590140500,"Athens-Clarke County, GA",12020
BERT'S GROCERY,st_147806,151,Nellie B Ave,151 Nellie B Ave,Bldg 8,Athens,GA,30601,USA,Small Grocery Store,14,Grocer,1,1,1,1,1,0,0,0,0,0,0,-83.35510088,33.95618543,esri,PointAddress,0,13,59,13059030200,G1300590030200,"Athens-Clarke County, GA",12020
PAN AM SUPERMARKET,st_011977,151,Nellie B Ave,151 Nellie B Ave,NA,Athens,GA,30601,NA,Small Grocery Store,14,Grocer,1,1,1,1,1,1,1,1,1,1,1,-83.3551,33.95619,usda,NA,0,13,59,13059030200,G1300590030200,"Athens-Clarke County, GA",12020
Chavita Produce,st_223986,145,Oneta St,145 Oneta St,NA,Athens,GA,30601,USA,Small Grocery Store,14,Grocer,1,0,0,1,1,1,1,0,0,0,0,-83.38889872,33.97193261,esri,PointAddress,0,13,59,13059130300,G1300590130300,"Athens-Clarke County, GA",12020
Los Amigos,st_299357,109,Rowe Rd,109 Rowe Rd,NA,Athens,GA,30601,NA,Small Grocery Store,14,Grocer,1,0,0,0,0,0,1,1,1,1,1,-83.39159,33.97324,usda,NA,0,13,59,13059130300,G1300590130300,"Athens-Clarke County, GA",12020
Four Tigers,st_386467,401,North Ave,401 North Ave,Ste 10,Athens,GA,30601,NA,Small Grocery Store,14,Grocer,1,0,0,0,0,0,0,0,0,1,1,-83.36447,33.97656,usda,NA,0,13,59,13059030100,G1300590030100,"Athens-Clarke County, GA",12020
La Bonita,st_176691,0,Highway 29 N,1880A Highway 29 N,NA,Athens,GA,30601,USA,Small Grocery Store,14,Grocer,1,0,1,1,0,0,0,0,0,0,0,-83.32032371,34.02168947,esri,StreetAddress,0,13,59,13059140400,G1300590140400,"Athens-Clarke County, GA",12020
GUERRERO SUPERMARKET,st_052044,3077,Danielsville Rd,3077 Danielsville Rd,NA,Athens,GA,30601,USA,Small Grocery Store,14,Grocer,1,1,1,1,1,1,1,0,0,0,0,-83.33038638,34.02491613,esri,PointAddress,0,13,59,13059140400,G1300590140400,"Athens-Clarke County, GA",12020
Sinaloa Supermarket LLC,st_353214,3077,Danielsville Rd,3077 Danielsville Rd,NA,Athens,GA,30601,NA,Small Grocery Store,14,Grocer,1,0,0,0,0,0,0,0,1,1,1,-83.33039,34.02493,usda,NA,0,13,59,13059140400,G1300590140400,"Athens-Clarke County, GA",12020
ALL AMERICAN FOOD STORE,st_082372,3073,Danielsville Rd,3073 Danielsville Rd,NA,Athens,GA,30601,USA,Small Grocery Store,14,Grocer,1,1,1,1,1,0,0,0,0,0,0,-83.33031587,34.02495614,esri,PointAddress,0,13,59,13059140400,G1300590140400,"Athens-Clarke County, GA",12020
Walmart S/C 1400,st_123833,1911,Epps Bridge Pkwy,1911 Epps Bridge Pkwy,NA,Athens,GA,30606,NA,Super Store,15,Supermarket,6,1,1,1,1,1,1,1,1,1,1,-83.44275,33.91846,usda,NA,0,13,219,13219030200,G1302190030200,"Athens-Clarke County, GA",12020
BIG KMART 7637,st_116481,2000,Barnett Shoals Rd,2000 Barnett Shoals Rd,NA,Athens,GA,30605,USA,Super Store,15,Supermarket,6,1,1,1,1,1,1,0,0,0,0,-83.34123216,33.92227947,esri,PointAddress,0,13,59,13059150500,G1300590150500,"Athens-Clarke County, GA",12020
Walmart S/C 2811,st_103772,4375,Lexington Rd,4375 Lexington Rd,NA,Athens,GA,30605,NA,Super Store,15,Supermarket,6,1,1,1,1,1,1,1,1,1,1,-83.31165,33.93303,usda,NA,0,13,59,13059140600,G1300590140600,"Athens-Clarke County, GA",12020
Piggly Wiggly 293,st_293192,4025,Lexington Rd,4025 Lexington Rd,NA,Athens,GA,30605,USA,Super Store,15,Supermarket,6,0,0,0,0,1,1,1,1,0,0,-83.32167647,33.93830516,esri,PointAddress,0,13,59,13059150700,G1300590150700,"Athens-Clarke County, GA",12020
Walmart Neighborhood Market 5267,st_390344,3130,Atlanta Hwy,3130 Atlanta Hwy,NA,Athens,GA,30606,NA,Super Store,15,Supermarket,6,0,0,0,0,0,0,0,0,1,1,-83.44325,33.94255,usda,NA,0,13,59,13059130700,G1300590130700,"Athens-Clarke County, GA",12020
Target Store T-1453,st_197692,3045,Atlanta Hwy,3045 Atlanta Hwy,NA,Athens,GA,30606,NA,Super Store,15,Supermarket,6,0,1,1,1,1,1,1,1,1,1,-83.43829,33.94424,usda,NA,0,13,59,13059130700,G1300590130700,"Athens-Clarke County, GA",12020
Dollar General Market 13517,st_285336,2411,Jefferson Rd,2411 Jefferson Rd,NA,Athens,GA,30607,NA,Super Store,15,Supermarket,6,0,0,0,0,1,1,1,1,1,1,-83.41282,33.97247,usda,NA,0,13,59,13059130300,G1300590130300,"Athens-Clarke County, GA",12020
Buy 4 Less 545,st_293203,484,North Ave,484 North Ave,NA,Athens,GA,30601,USA,Super Store,15,Supermarket,6,0,0,0,0,1,1,0,0,0,0,-83.36459957,33.97580129,esri,PointAddress,0,13,59,13059030100,G1300590030100,"Athens-Clarke County, GA",12020
Kroger 618,st_352391,700,Highway 29 N,700 Highway 29 N,NA,Athens,GA,30601,NA,Super Store,15,Supermarket,6,0,0,0,0,0,0,1,1,1,1,-83.33572,33.99758,usda,NA,0,13,59,13059140400,G1300590140400,"Athens-Clarke County, GA",12020
Trader Joes 736,st_246560,1850,Epps Bridge Pkwy,1850 Epps Bridge Pkwy,Ste 331,Athens,GA,30606,NA,Supermarket,16,Supermarket,6,0,0,0,1,1,1,1,1,1,1,-83.4446,33.91618,usda,NA,0,13,219,13219030200,G1302190030200,"Athens-Clarke County, GA",12020
PUBLIX 1146,st_050054,1860,Barnett Shoals Rd,1860 Barnett Shoals Rd,NA,Athens,GA,30605,NA,Supermarket,16,Supermarket,6,1,1,1,1,1,1,1,1,1,1,-83.33996,33.92585,usda,NA,0,13,59,13059150500,G1300590150500,"Athens-Clarke County, GA",12020
Earth Fare 300,st_103784,1689,S Lumpkin St,1689 S Lumpkin St,NA,Athens,GA,30606,NA,Supermarket,16,Supermarket,6,1,1,1,1,1,1,1,1,1,1,-83.38728,33.93777,usda,NA,0,13,59,13059002100,G1300590002100,"Athens-Clarke County, GA",12020
SOUTHERN FAMILY MARKETS OF ATHENS LEXINGTON RD,st_018858,4025,Lexington Rd,4025 Lexington Rd,NA,Athens,GA,30605,USA,Supermarket,16,Supermarket,6,1,1,1,1,1,0,0,0,0,0,-83.32167647,33.93830516,esri,PointAddress,0,13,59,13059150700,G1300590150700,"Athens-Clarke County, GA",12020
Aldi 18,st_286706,3400,Atlanta Hwy,3400 Atlanta Hwy,NA,Athens,GA,30606,NA,Supermarket,16,Supermarket,6,0,0,0,0,1,1,1,1,1,1,-83.45205,33.93998,usda,NA,0,13,59,13059130600,G1300590130600,"Athens-Clarke County, GA",12020
The Fresh Market 155,st_315318,196,Alps Rd,196 Alps Rd,Ste 50,Athens,GA,30606,NA,Supermarket,16,Supermarket,6,0,0,0,0,0,1,1,1,1,1,-83.40926,33.94701,usda,NA,0,13,59,13059001200,G1300590001200,"Athens-Clarke County, GA",12020
SOUTHERN FAMILY MARKETS OF ATHENS NORTH,st_018856,484,North Ave,484 North Ave,NA,Athens,GA,30601,USA,Supermarket,16,Supermarket,6,1,1,1,1,1,1,0,0,0,0,-83.36459957,33.97580129,esri,PointAddress,0,13,59,13059030100,G1300590030100,"Athens-Clarke County, GA",12020
Piggly Wiggly,st_335610,484,North Ave,484 North Ave,NA,Athens,GA,30601,NA,Supermarket,16,Supermarket,6,0,0,0,0,0,0,1,1,1,1,-83.36417,33.97698,usda,NA,0,13,59,13059030100,G1300590030100,"Athens-Clarke County, GA",12020
